start=new Date('2022-12-25T00:00:00.000Z').valueOf();
sats=[{"CENTER_NAME":"EARTH","SEMIMAJOR_AXIS":"6950.161","MEAN_ANOMALY":"105.1316","RCS_SIZE":"LARGE","APOAPSIS":"574.253","MEAN_MOTION_DDOT":"0.0000000000000","TIME_SYSTEM":"UTC","RA_OF_ASC_NODE":"7.9082","REV_AT_EPOCH":"7167","INCLINATION":"70.0004","EPOCH":"2022-12-24T07:34:46.681248","PERIAPSIS":"569.798","DECAY_DATE":null,"BSTAR":"0.00009211500000","MEAN_MOTION_DOT":"0.00001007","COUNTRY_CODE":"US","FILE":"3721189","GP_ID":"221347481","OBJECT_ID":"2021-082BA","EPHEMERIS_TYPE":"0","SITE":"AFWTR","ELEMENT_SET_NO":"999","CLASSIFICATION_TYPE":"U","OBJECT_NAME":"STARLINK-3086","TLE_LINE2":"2 49178  70.0004   7.9082 0003205 254.9488 105.1316 14.98340360 71674","ARG_OF_PERICENTER":"254.9488","REF_FRAME":"TEME","ECCENTRICITY":"0.00032050","OBJECT_TYPE":"PAYLOAD","LAUNCH_DATE":"2021-09-14","NORAD_CAT_ID":"49178","PERIOD":"96.106","MEAN_ELEMENT_THEORY":"SGP4","TLE_LINE1":"1 49178U 21082BA  22358.31581807  .00001007  00000-0  92115-4 0  9995","MEAN_MOTION":"14.98340360"},{"ECCENTRICITY":"0.00030830","OBJECT_TYPE":"PAYLOAD","CLASSIFICATION_TYPE":"U","TLE_LINE2":"2 49179  70.0007 326.4896 0003083 278.4360  81.6449 14.98337981 71584","OBJECT_NAME":"STARLINK-3043","REF_FRAME":"TEME","ARG_OF_PERICENTER":"278.4360","OBJECT_ID":"2021-082BB","EPHEMERIS_TYPE":"0","ELEMENT_SET_NO":"999","SITE":"AFWTR","GP_ID":"221378993","MEAN_MOTION":"14.98337981","TLE_LINE1":"1 49179U 21082BB  22358.87845093  .00003470  00000-0  29839-3 0  9995","PERIOD":"96.106","MEAN_ELEMENT_THEORY":"SGP4","LAUNCH_DATE":"2021-09-14","NORAD_CAT_ID":"49179","MEAN_MOTION_DDOT":"0.0000000000000","TIME_SYSTEM":"UTC","RA_OF_ASC_NODE":"326.4896","SEMIMAJOR_AXIS":"6950.168","CENTER_NAME":"EARTH","MEAN_ANOMALY":"81.6449","RCS_SIZE":"LARGE","APOAPSIS":"574.176","MEAN_MOTION_DOT":"0.00003470","COUNTRY_CODE":"US","FILE":"3721442","PERIAPSIS":"569.890","BSTAR":"0.00029839000000","DECAY_DATE":null,"INCLINATION":"70.0007","EPOCH":"2022-12-24T21:04:58.160352","REV_AT_EPOCH":"7158"},{"RA_OF_ASC_NODE":"347.7070","TIME_SYSTEM":"UTC","MEAN_MOTION_DDOT":"0.0000000000000","RCS_SIZE":"LARGE","APOAPSIS":"574.139","SEMIMAJOR_AXIS":"6950.158","CENTER_NAME":"EARTH","MEAN_ANOMALY":"88.6337","EPOCH":"2022-12-24T09:26:33.308448","INCLINATION":"70.0010","REV_AT_EPOCH":"7219","FILE":"3721189","COUNTRY_CODE":"US","MEAN_MOTION_DOT":"0.00001362","BSTAR":"0.00012192000000","DECAY_DATE":null,"PERIAPSIS":"569.906","SITE":"AFWTR","ELEMENT_SET_NO":"999","OBJECT_ID":"2021-082BC","EPHEMERIS_TYPE":"0","GP_ID":"221347985","OBJECT_TYPE":"PAYLOAD","ECCENTRICITY":"0.00030450","REF_FRAME":"TEME","ARG_OF_PERICENTER":"271.4473","TLE_LINE2":"2 49180  70.0010 347.7070 0003045 271.4473  88.6337 14.98341417 72196","OBJECT_NAME":"STARLINK-3050","CLASSIFICATION_TYPE":"U","MEAN_ELEMENT_THEORY":"SGP4","PERIOD":"96.106","LAUNCH_DATE":"2021-09-14","NORAD_CAT_ID":"49180","MEAN_MOTION":"14.98341417","TLE_LINE1":"1 49180U 21082BC  22358.39344107  .00001362  00000-0  12192-3 0  9996"},{"REV_AT_EPOCH":"7177","INCLINATION":"69.9995","EPOCH":"2022-12-24T18:20:15.992736","PERIAPSIS":"569.832","DECAY_DATE":null,"BSTAR":"0.00013586000000","MEAN_MOTION_DOT":"0.00001529","COUNTRY_CODE":"US","FILE":"3721442","CENTER_NAME":"EARTH","SEMIMAJOR_AXIS":"6950.156","MEAN_ANOMALY":"89.1439","RCS_SIZE":"LARGE","APOAPSIS":"574.209","MEAN_MOTION_DDOT":"0.0000000000000","TIME_SYSTEM":"UTC","RA_OF_ASC_NODE":"6.7695","LAUNCH_DATE":"2021-09-14","NORAD_CAT_ID":"49181","PERIOD":"96.106","MEAN_ELEMENT_THEORY":"SGP4","TLE_LINE1":"1 49181U 21082BD  22358.76407399  .00001529  00000-0  13586-3 0  9994","MEAN_MOTION":"14.98342019","GP_ID":"221378491","OBJECT_ID":"2021-082BD","EPHEMERIS_TYPE":"0","SITE":"AFWTR","ELEMENT_SET_NO":"999","CLASSIFICATION_TYPE":"U","TLE_LINE2":"2 49181  69.9995   6.7695 0003149 270.9359  89.1439 14.98342019 71774","OBJECT_NAME":"STARLINK-3059","REF_FRAME":"TEME","ARG_OF_PERICENTER":"270.9359","ECCENTRICITY":"0.00031490","OBJECT_TYPE":"PAYLOAD"},{"MEAN_MOTION_DOT":"0.00003500","COUNTRY_CODE":"US","FILE":"3721189","PERIAPSIS":"537.971","BSTAR":"0.00023783000000","DECAY_DATE":null,"INCLINATION":"53.2165","EPOCH":"2022-12-24T12:30:33.511680","REV_AT_EPOCH":"6182","MEAN_MOTION_DDOT":"0.0000000000000","TIME_SYSTEM":"UTC","RA_OF_ASC_NODE":"86.7078","CENTER_NAME":"EARTH","SEMIMAJOR_AXIS":"6917.850","MEAN_ANOMALY":"283.1852","APOAPSIS":"541.459","RCS_SIZE":"LARGE","MEAN_MOTION":"15.08849854","TLE_LINE1":"1 49408U 21104A   22358.52122120  .00003500  00000-0  23783-3 0  9992","PERIOD":"95.437","MEAN_ELEMENT_THEORY":"SGP4","NORAD_CAT_ID":"49408","LAUNCH_DATE":"2021-11-13","ECCENTRICITY":"0.00025210","OBJECT_TYPE":"PAYLOAD","CLASSIFICATION_TYPE":"U","OBJECT_NAME":"STARLINK-3151","TLE_LINE2":"2 49408  53.2165  86.7078 0002521  76.9421 283.1852 15.08849854 61822","REF_FRAME":"TEME","ARG_OF_PERICENTER":"76.9421","EPHEMERIS_TYPE":"0","OBJECT_ID":"2021-104A","SITE":"AFETR","ELEMENT_SET_NO":"999","GP_ID":"221349260"},{"LAUNCH_DATE":"2021-11-13","NORAD_CAT_ID":"49409","PERIOD":"95.437","MEAN_ELEMENT_THEORY":"SGP4","TLE_LINE1":"1 49409U 21104B   22358.66840863  .00000776  00000-0  66819-4 0  9999","MEAN_MOTION":"15.08847051","GP_ID":"221380267","EPHEMERIS_TYPE":"0","OBJECT_ID":"2021-104B","SITE":"AFETR","ELEMENT_SET_NO":"999","CLASSIFICATION_TYPE":"U","TLE_LINE2":"2 49409  53.2173  86.0492 0002111  44.5484 315.5677 15.08847051 61855","OBJECT_NAME":"STARLINK-3075","ARG_OF_PERICENTER":"44.5484","REF_FRAME":"TEME","ECCENTRICITY":"0.00021110","OBJECT_TYPE":"PAYLOAD","REV_AT_EPOCH":"6185","INCLINATION":"53.2173","EPOCH":"2022-12-24T16:02:30.505632","PERIAPSIS":"538.263","DECAY_DATE":null,"BSTAR":"0.00006681900000","MEAN_MOTION_DOT":"0.00000776","COUNTRY_CODE":"US","FILE":"3721442","SEMIMAJOR_AXIS":"6917.859","CENTER_NAME":"EARTH","MEAN_ANOMALY":"315.5677","APOAPSIS":"541.184","RCS_SIZE":"LARGE","MEAN_MOTION_DDOT":"0.0000000000000","TIME_SYSTEM":"UTC","RA_OF_ASC_NODE":"86.0492"},{"ECCENTRICITY":"0.00028250","OBJECT_TYPE":"PAYLOAD","CLASSIFICATION_TYPE":"U","ARG_OF_PERICENTER":"37.2478","REF_FRAME":"TEME","OBJECT_NAME":"STARLINK-3147","TLE_LINE2":"2 49410  53.2164  86.6749 0002825  37.2478 322.8709 15.08843626 61820","EPHEMERIS_TYPE":"0","OBJECT_ID":"2021-104C","ELEMENT_SET_NO":"999","SITE":"AFETR","GP_ID":"221348258","MEAN_MOTION":"15.08843626","TLE_LINE1":"1 49410U 21104C   22358.52857216  .00001964  00000-0  14144-3 0  9999","PERIOD":"95.437","MEAN_ELEMENT_THEORY":"SGP4","NORAD_CAT_ID":"49410","LAUNCH_DATE":"2021-11-13","TIME_SYSTEM":"UTC","MEAN_MOTION_DDOT":"0.0000000000000","RA_OF_ASC_NODE":"86.6749","SEMIMAJOR_AXIS":"6917.869","MEAN_ANOMALY":"322.8709","CENTER_NAME":"EARTH","RCS_SIZE":"LARGE","APOAPSIS":"541.689","MEAN_MOTION_DOT":"0.00001964","FILE":"3721189","COUNTRY_CODE":"US","BSTAR":"0.00014144000000","DECAY_DATE":null,"PERIAPSIS":"537.780","EPOCH":"2022-12-24T12:41:08.634624","INCLINATION":"53.2164","REV_AT_EPOCH":"6182"},{"TIME_SYSTEM":"UTC","MEAN_MOTION_DDOT":"0.0000000000000","RA_OF_ASC_NODE":"75.8128","SEMIMAJOR_AXIS":"6917.892","CENTER_NAME":"EARTH","MEAN_ANOMALY":"333.0163","RCS_SIZE":"LARGE","APOAPSIS":"541.678","MEAN_MOTION_DOT":"0.00004894","FILE":"3721442","COUNTRY_CODE":"US","BSTAR":"0.00032541000000","DECAY_DATE":null,"PERIAPSIS":"537.835","EPOCH":"2022-12-24T17:18:01.649952","INCLINATION":"53.2157","REV_AT_EPOCH":"6199","ECCENTRICITY":"0.00027780","OBJECT_TYPE":"PAYLOAD","CLASSIFICATION_TYPE":"U","REF_FRAME":"TEME","ARG_OF_PERICENTER":"27.0973","OBJECT_NAME":"STARLINK-3162","TLE_LINE2":"2 49411  53.2157  75.8128 0002778  27.0973 333.0163 15.08836340 61999","EPHEMERIS_TYPE":"0","OBJECT_ID":"2021-104D","SITE":"AFETR","ELEMENT_SET_NO":"999","GP_ID":"221381269","MEAN_MOTION":"15.08836340","TLE_LINE1":"1 49411U 21104D   22358.72085243  .00004894  00000-0  32541-3 0  9991","PERIOD":"95.438","MEAN_ELEMENT_THEORY":"SGP4","LAUNCH_DATE":"2021-11-13","NORAD_CAT_ID":"49411"},{"MEAN_MOTION_DDOT":"0.0000000000000","TIME_SYSTEM":"UTC","RA_OF_ASC_NODE":"85.7677","SEMIMAJOR_AXIS":"6917.849","MEAN_ANOMALY":"313.3284","CENTER_NAME":"EARTH","APOAPSIS":"541.077","RCS_SIZE":"LARGE","INCLINATION":"53.2172","EPOCH":"2022-12-24T17:32:36.051648","REV_AT_EPOCH":"6186","MEAN_MOTION_DOT":"0.00002600","COUNTRY_CODE":"US","FILE":"3721442","PERIAPSIS":"538.350","DECAY_DATE":null,"BSTAR":"0.00018136000000","EPHEMERIS_TYPE":"0","OBJECT_ID":"2021-104E","ELEMENT_SET_NO":"999","SITE":"AFETR","GP_ID":"221381020","ECCENTRICITY":"0.00019710","OBJECT_TYPE":"PAYLOAD","CLASSIFICATION_TYPE":"U","TLE_LINE2":"2 49412  53.2172  85.7677 0001971  46.7872 313.3284 15.08850422 61864","OBJECT_NAME":"STARLINK-3144","ARG_OF_PERICENTER":"46.7872","REF_FRAME":"TEME","PERIOD":"95.437","MEAN_ELEMENT_THEORY":"SGP4","NORAD_CAT_ID":"49412","LAUNCH_DATE":"2021-11-13","MEAN_MOTION":"15.08850422","TLE_LINE1":"1 49412U 21104E   22358.73097282  .00002600  00000-0  18136-3 0  9996"},{"MEAN_MOTION":"15.08836698","TLE_LINE1":"1 49413U 21104F   22358.91589502 -.00000703  00000-0 -26038-4 0  9993","MEAN_ELEMENT_THEORY":"SGP4","PERIOD":"95.438","NORAD_CAT_ID":"49413","LAUNCH_DATE":"2021-11-13","OBJECT_TYPE":"PAYLOAD","ECCENTRICITY":"0.00027050","TLE_LINE2":"2 49413  53.2177  74.9333 0002705  33.7108 326.4056 15.08836698 62023","OBJECT_NAME":"STARLINK-3157","REF_FRAME":"TEME","ARG_OF_PERICENTER":"33.7108","CLASSIFICATION_TYPE":"U","ELEMENT_SET_NO":"999","SITE":"AFETR","EPHEMERIS_TYPE":"0","OBJECT_ID":"2021-104F","GP_ID":"221379769","COUNTRY_CODE":"US","FILE":"3721442","MEAN_MOTION_DOT":"-0.00000703","PERIAPSIS":"537.884","BSTAR":"-0.00002603800000","DECAY_DATE":null,"INCLINATION":"53.2177","EPOCH":"2022-12-24T21:58:53.329728","REV_AT_EPOCH":"6202","RA_OF_ASC_NODE":"74.9333","MEAN_MOTION_DDOT":"0.0000000000000","TIME_SYSTEM":"UTC","RCS_SIZE":"LARGE","APOAPSIS":"541.627","SEMIMAJOR_AXIS":"6917.890","CENTER_NAME":"EARTH","MEAN_ANOMALY":"326.4056"}];
